{
  "type": "FeatureCollection",
  "name": "OSM way 456494873 real road reference line",
  "crs_note": "RFC 7946 GeoJSON coordinates in WGS 84 longitude, latitude (EPSG:4326)",
  "features": [
    {
      "type": "Feature",
      "properties": {
        "route_id": "osm-way-456494873",
        "name": "Hana Highway",
        "source": "OpenStreetMap API 0.6",
        "source_url": "https://api.openstreetmap.org/api/0.6/way/456494873/full.json",
        "osm_way_id": 456494873,
        "osm_version": 5,
        "osm_way_timestamp": "2025-08-30T04:51:22Z",
        "retrieved_at": "2026-10-07",
        "attribution": "© OpenStreetMap contributors",
        "license": "Open Database License (ODbL) 1.0",
        "line_role": "OSM mapped road way; not a surveyed road centerline",
        "tags": {
          "highway": "tertiary",
          "name": "Hana Highway",
          "ref": "HI-360",
          "surface": "asphalt"
        }
      },
      "geometry": {
        "type": "LineString",
        "coordinates": [
          [
            -156.1383162,
            20.832336
          ],
          [
            -156.1382669,
            20.8323785
          ],
          [
            -156.13821,
            20.832424
          ],
          [
            -156.1381198,
            20.8324916
          ],
          [
            -156.1380099,
            20.8326117
          ],
          [
            -156.1379029,
            20.8327337
          ],
          [
            -156.1378335,
            20.832828
          ],
          [
            -156.1377883,
            20.8329406
          ],
          [
            -156.1377585,
            20.8330242
          ],
          [
            -156.1377361,
            20.8330849
          ],
          [
            -156.1377112,
            20.8331352
          ],
          [
            -156.1376774,
            20.8331839
          ],
          [
            -156.1376352,
            20.83323
          ],
          [
            -156.1375979,
            20.8332668
          ],
          [
            -156.1375245,
            20.833315
          ],
          [
            -156.1374826,
            20.8333365
          ],
          [
            -156.1374217,
            20.8333539
          ],
          [
            -156.1373157,
            20.8333764
          ],
          [
            -156.1371809,
            20.8333999
          ],
          [
            -156.1370955,
            20.8334323
          ],
          [
            -156.1370236,
            20.8334729
          ],
          [
            -156.1369456,
            20.8335249
          ],
          [
            -156.1368681,
            20.8335738
          ],
          [
            -156.1367542,
            20.8336359
          ],
          [
            -156.136691,
            20.8336622
          ],
          [
            -156.1366182,
            20.833704
          ],
          [
            -156.136516,
            20.8337847
          ],
          [
            -156.1364606,
            20.8338588
          ],
          [
            -156.1364295,
            20.833921
          ],
          [
            -156.1364108,
            20.8339851
          ],
          [
            -156.1363894,
            20.8340536
          ],
          [
            -156.1363761,
            20.8340882
          ],
          [
            -156.136357,
            20.8341167
          ],
          [
            -156.1363439,
            20.8341348
          ],
          [
            -156.1363186,
            20.8341572
          ],
          [
            -156.1362877,
            20.8341757
          ],
          [
            -156.1362297,
            20.8341913
          ],
          [
            -156.1361643,
            20.8341965
          ],
          [
            -156.135735,
            20.8342
          ],
          [
            -156.13552,
            20.834173
          ],
          [
            -156.1353051,
            20.8341679
          ],
          [
            -156.1352501,
            20.8341654
          ],
          [
            -156.1352034,
            20.8341551
          ],
          [
            -156.1351469,
            20.8341362
          ],
          [
            -156.1350652,
            20.8341025
          ],
          [
            -156.1349967,
            20.8340536
          ],
          [
            -156.1349396,
            20.8339794
          ],
          [
            -156.1348999,
            20.8338656
          ],
          [
            -156.1348945,
            20.8337755
          ],
          [
            -156.1349042,
            20.8336898
          ],
          [
            -156.1349212,
            20.833616
          ],
          [
            -156.134945,
            20.8335593
          ],
          [
            -156.1349987,
            20.8334837
          ],
          [
            -156.1350312,
            20.8334483
          ],
          [
            -156.1350913,
            20.8334
          ],
          [
            -156.1351904,
            20.8333518
          ],
          [
            -156.1354058,
            20.8332562
          ],
          [
            -156.1355151,
            20.8331902
          ],
          [
            -156.1355671,
            20.8331548
          ],
          [
            -156.135617,
            20.8331094
          ],
          [
            -156.1356623,
            20.8330546
          ],
          [
            -156.1356799,
            20.8330073
          ],
          [
            -156.1356822,
            20.8329665
          ],
          [
            -156.1356766,
            20.8329085
          ],
          [
            -156.1356574,
            20.8328612
          ],
          [
            -156.1353496,
            20.8326293
          ],
          [
            -156.1352965,
            20.8325735
          ],
          [
            -156.1352683,
            20.8325333
          ],
          [
            -156.1352492,
            20.8324806
          ],
          [
            -156.135232,
            20.8323865
          ],
          [
            -156.1352284,
            20.8323173
          ],
          [
            -156.13523,
            20.832254
          ],
          [
            -156.1352434,
            20.8321317
          ],
          [
            -156.1352395,
            20.8320562
          ],
          [
            -156.1352296,
            20.8320022
          ],
          [
            -156.1352104,
            20.8319319
          ],
          [
            -156.1351999,
            20.8318885
          ],
          [
            -156.135168,
            20.8318297
          ],
          [
            -156.1351261,
            20.8317381
          ],
          [
            -156.1351149,
            20.8316576
          ],
          [
            -156.1351195,
            20.8315886
          ],
          [
            -156.135132,
            20.8315359
          ],
          [
            -156.1351672,
            20.831467
          ],
          [
            -156.1352524,
            20.8313635
          ],
          [
            -156.1353008,
            20.8313236
          ],
          [
            -156.1353293,
            20.8312923
          ],
          [
            -156.1353356,
            20.8312582
          ],
          [
            -156.1353381,
            20.8312316
          ],
          [
            -156.135333,
            20.831173
          ],
          [
            -156.1353032,
            20.8311315
          ],
          [
            -156.1352712,
            20.8311113
          ],
          [
            -156.1352245,
            20.8311052
          ],
          [
            -156.1351563,
            20.8311142
          ],
          [
            -156.1349876,
            20.8311504
          ],
          [
            -156.1349335,
            20.8311687
          ],
          [
            -156.1348989,
            20.8311691
          ],
          [
            -156.1348542,
            20.8311646
          ],
          [
            -156.1348214,
            20.8311493
          ],
          [
            -156.1347844,
            20.8311158
          ],
          [
            -156.1347491,
            20.8310667
          ],
          [
            -156.1346849,
            20.8308601
          ],
          [
            -156.1346516,
            20.8307569
          ],
          [
            -156.1346294,
            20.8306514
          ],
          [
            -156.1346411,
            20.8305792
          ],
          [
            -156.1346741,
            20.8305212
          ],
          [
            -156.1347151,
            20.8304508
          ],
          [
            -156.1347764,
            20.8303808
          ],
          [
            -156.1348174,
            20.8303253
          ],
          [
            -156.1348416,
            20.8302801
          ],
          [
            -156.13487,
            20.830233
          ],
          [
            -156.1349137,
            20.830165
          ],
          [
            -156.134967,
            20.8301065
          ],
          [
            -156.1350084,
            20.8300642
          ],
          [
            -156.1350593,
            20.8300248
          ],
          [
            -156.1352264,
            20.829914
          ],
          [
            -156.1352822,
            20.8298533
          ],
          [
            -156.1353083,
            20.8298101
          ],
          [
            -156.1353184,
            20.8297774
          ],
          [
            -156.1353131,
            20.8297424
          ],
          [
            -156.1352916,
            20.8297186
          ],
          [
            -156.1352648,
            20.8296978
          ],
          [
            -156.1352226,
            20.8296872
          ],
          [
            -156.1349439,
            20.829673
          ],
          [
            -156.1348879,
            20.8296622
          ],
          [
            -156.1348336,
            20.8296404
          ],
          [
            -156.1347809,
            20.8296038
          ],
          [
            -156.1347413,
            20.8295545
          ],
          [
            -156.1347155,
            20.8294962
          ],
          [
            -156.1347016,
            20.8293752
          ],
          [
            -156.1347022,
            20.8292413
          ],
          [
            -156.13471,
            20.82914
          ],
          [
            -156.134732,
            20.829003
          ],
          [
            -156.1347432,
            20.82897
          ],
          [
            -156.1347887,
            20.8289288
          ],
          [
            -156.1348886,
            20.8288925
          ],
          [
            -156.1349702,
            20.8288717
          ],
          [
            -156.1350336,
            20.8288496
          ],
          [
            -156.1350938,
            20.8288202
          ],
          [
            -156.1351654,
            20.8287528
          ],
          [
            -156.1352116,
            20.8286955
          ],
          [
            -156.1352926,
            20.8285867
          ],
          [
            -156.1353796,
            20.8285106
          ],
          [
            -156.1354113,
            20.828466
          ],
          [
            -156.1354308,
            20.828415
          ],
          [
            -156.1354466,
            20.8283549
          ],
          [
            -156.1354708,
            20.8282164
          ],
          [
            -156.1354732,
            20.8281255
          ],
          [
            -156.1354659,
            20.8280693
          ],
          [
            -156.1354547,
            20.8280311
          ],
          [
            -156.1354253,
            20.827999
          ],
          [
            -156.1353784,
            20.8279795
          ],
          [
            -156.1353233,
            20.8279723
          ],
          [
            -156.1352617,
            20.8279736
          ],
          [
            -156.1351699,
            20.8279908
          ],
          [
            -156.1351255,
            20.828009
          ],
          [
            -156.1350802,
            20.8280328
          ],
          [
            -156.1350172,
            20.8280653
          ],
          [
            -156.1349662,
            20.8280917
          ],
          [
            -156.1349149,
            20.8280989
          ],
          [
            -156.1348746,
            20.8280937
          ],
          [
            -156.1348334,
            20.8280749
          ],
          [
            -156.1347848,
            20.8280313
          ],
          [
            -156.1347632,
            20.8279984
          ],
          [
            -156.1347411,
            20.8279322
          ],
          [
            -156.1347114,
            20.8278464
          ],
          [
            -156.1346325,
            20.8276445
          ],
          [
            -156.1346144,
            20.8275468
          ],
          [
            -156.1346245,
            20.827491
          ],
          [
            -156.1346412,
            20.8274361
          ],
          [
            -156.1346815,
            20.827389
          ],
          [
            -156.1347495,
            20.8273354
          ],
          [
            -156.1347883,
            20.827288
          ],
          [
            -156.1348439,
            20.8272165
          ],
          [
            -156.1349065,
            20.8271596
          ],
          [
            -156.1350373,
            20.8270798
          ],
          [
            -156.135153,
            20.827
          ],
          [
            -156.135208,
            20.826944
          ],
          [
            -156.1352485,
            20.826882
          ],
          [
            -156.135276,
            20.82682
          ],
          [
            -156.1352923,
            20.8267594
          ],
          [
            -156.1353026,
            20.8266878
          ],
          [
            -156.1353132,
            20.8266435
          ],
          [
            -156.135341,
            20.826588
          ],
          [
            -156.1353894,
            20.8265222
          ],
          [
            -156.1354411,
            20.8264631
          ],
          [
            -156.135482,
            20.826399
          ],
          [
            -156.1355183,
            20.826274
          ],
          [
            -156.1355494,
            20.8261959
          ],
          [
            -156.135573,
            20.826152
          ],
          [
            -156.1356264,
            20.8261018
          ],
          [
            -156.1356682,
            20.8260519
          ],
          [
            -156.1357229,
            20.8259931
          ],
          [
            -156.1358092,
            20.8258681
          ],
          [
            -156.1359166,
            20.8257592
          ],
          [
            -156.1360591,
            20.8256154
          ],
          [
            -156.136219,
            20.8253919
          ],
          [
            -156.1364776,
            20.8251421
          ],
          [
            -156.1365325,
            20.82507
          ],
          [
            -156.1365695,
            20.8249929
          ],
          [
            -156.1366164,
            20.8247715
          ],
          [
            -156.136699,
            20.8245913
          ],
          [
            -156.1367649,
            20.8244811
          ],
          [
            -156.13683,
            20.824384
          ],
          [
            -156.136953,
            20.8241919
          ],
          [
            -156.1369993,
            20.8240933
          ],
          [
            -156.1370246,
            20.8239915
          ],
          [
            -156.1370671,
            20.8238928
          ],
          [
            -156.1371464,
            20.8237869
          ],
          [
            -156.137215,
            20.823691
          ],
          [
            -156.1373333,
            20.8235754
          ],
          [
            -156.137382,
            20.8235408
          ],
          [
            -156.1374522,
            20.823525
          ],
          [
            -156.1375456,
            20.8235062
          ],
          [
            -156.1376466,
            20.8234801
          ],
          [
            -156.1377444,
            20.8234319
          ],
          [
            -156.1378154,
            20.823382
          ],
          [
            -156.1378956,
            20.8233153
          ],
          [
            -156.1379583,
            20.8232404
          ],
          [
            -156.137993,
            20.823178
          ],
          [
            -156.1380679,
            20.822989
          ],
          [
            -156.1381132,
            20.822803
          ],
          [
            -156.1381282,
            20.822606
          ],
          [
            -156.1381461,
            20.8223656
          ],
          [
            -156.1381673,
            20.8222068
          ],
          [
            -156.1381654,
            20.8221307
          ],
          [
            -156.1381504,
            20.8220026
          ],
          [
            -156.1381369,
            20.8217987
          ],
          [
            -156.138117,
            20.821736
          ]
        ]
      }
    }
  ]
}