{
  "type": "FeatureCollection",
  "name": "OSM way 322962944 real road reference line",
  "crs_note": "RFC 7946 GeoJSON coordinates in WGS 84 longitude, latitude (EPSG:4326)",
  "features": [
    {
      "type": "Feature",
      "properties": {
        "route_id": "osm-way-322962944",
        "source": "OpenStreetMap API 0.6",
        "source_url": "https://api.openstreetmap.org/api/0.6/way/322962944/full.json",
        "osm_way_id": 322962944,
        "osm_version": 20,
        "osm_way_timestamp": "2026-02-12T06:37:36Z",
        "retrieved_at": "2026-10-07",
        "attribution": "© OpenStreetMap contributors",
        "license": "Open Database License (ODbL) 1.0",
        "line_role": "OSM mapped bridge motorway_link ramp; not a surveyed road centerline",
        "tags": {
          "bridge": "yes",
          "destination": "Treasure Island;Yerba Buena Island",
          "highway": "motorway_link",
          "junction:ref": "4",
          "lanes": "1",
          "layer": "3",
          "lit": "yes",
          "maxspeed": "50 mph",
          "maxspeed:advisory": "20 mph",
          "oneway": "yes",
          "surface": "concrete",
          "turn:lanes": "none"
        },
        "name": "匝道至 Treasure Island / Yerba Buena Island（路口 4）",
        "name_basis": "由 OSM destination 与 junction:ref 标签组合；OSM 未提供 name 标签"
      },
      "geometry": {
        "type": "LineString",
        "coordinates": [
          [
            -122.3613174,
            37.813815
          ],
          [
            -122.3616859,
            37.8136717
          ],
          [
            -122.3618787,
            37.8135311
          ],
          [
            -122.3619314,
            37.8134849
          ],
          [
            -122.3619746,
            37.8134528
          ],
          [
            -122.3620379,
            37.8134049
          ],
          [
            -122.3621106,
            37.8133502
          ],
          [
            -122.3621601,
            37.8133129
          ],
          [
            -122.3622964,
            37.8132045
          ],
          [
            -122.3624336,
            37.8130918
          ],
          [
            -122.3625586,
            37.8129828
          ],
          [
            -122.3626817,
            37.812873
          ],
          [
            -122.3628031,
            37.8127617
          ],
          [
            -122.3629155,
            37.8126544
          ],
          [
            -122.362972,
            37.8126021
          ],
          [
            -122.3630192,
            37.812562
          ],
          [
            -122.3630673,
            37.8125281
          ],
          [
            -122.3631187,
            37.8124969
          ],
          [
            -122.3631702,
            37.8124691
          ],
          [
            -122.3632321,
            37.8124414
          ],
          [
            -122.3632945,
            37.8124167
          ],
          [
            -122.3633652,
            37.8123942
          ],
          [
            -122.3634331,
            37.8123773
          ],
          [
            -122.3634971,
            37.812368
          ],
          [
            -122.3635647,
            37.8123634
          ],
          [
            -122.3636487,
            37.8123654
          ],
          [
            -122.3637329,
            37.8123745
          ],
          [
            -122.363832,
            37.8123891
          ],
          [
            -122.3639041,
            37.8123967
          ],
          [
            -122.3639702,
            37.8123978
          ],
          [
            -122.3640386,
            37.8123898
          ],
          [
            -122.3640948,
            37.8123784
          ],
          [
            -122.3641474,
            37.8123626
          ],
          [
            -122.3641998,
            37.8123407
          ],
          [
            -122.3642493,
            37.8123148
          ],
          [
            -122.3642976,
            37.8122836
          ],
          [
            -122.364343,
            37.8122449
          ],
          [
            -122.3643779,
            37.8122075
          ],
          [
            -122.3644109,
            37.8121651
          ]
        ]
      }
    }
  ]
}